<?xml version="1.0" ?>
<gpx xmlns="http://www.topografix.com/GPX/1/1">
 <trk>
  <name>NY SINGLETON ALPHA</name>
  <trkseg>
   <trkpt lat="40.79822" lon="-73.95265"/>
   <trkpt lat="40.79817" lon="-73.95272"/>
   <trkpt lat="40.79814" lon="-73.9529"/>
   <trkpt lat="40.79817" lon="-73.95309"/>
   <trkpt lat="40.79835" lon="-73.95345"/>
   <trkpt lat="40.79839" lon="-73.95354"/>
   <trkpt lat="40.79843" lon="-73.95371"/>
   <trkpt lat="40.79844" lon="-73.95388"/>
   <trkpt lat="40.79844" lon="-73.95388"/>
   <trkpt lat="40.79844" lon="-73.95391"/>
   <trkpt lat="40.79837" lon="-73.95387"/>
   <trkpt lat="40.79826" lon="-73.95383"/>
   <trkpt lat="40.79796" lon="-73.95376"/>
   <trkpt lat="40.79791" lon="-73.95376"/>
   <trkpt lat="40.79788" lon="-73.95382"/>
   <trkpt lat="40.79766" lon="-73.95411"/>
   <trkpt lat="40.79766" lon="-73.95411"/>
   <trkpt lat="40.79762" lon="-73.95418"/>
   <trkpt lat="40.79767" lon="-73.95429"/>
   <trkpt lat="40.79769" lon="-73.95434"/>
   <trkpt lat="40.79762" lon="-73.95438"/>
   <trkpt lat="40.79762" lon="-73.95438"/>
   <trkpt lat="40.79747" lon="-73.95445"/>
   <trkpt lat="40.79723" lon="-73.95461"/>
   <trkpt lat="40.79695" lon="-73.95481"/>
   <trkpt lat="40.79695" lon="-73.95481"/>
   <trkpt lat="40.79677" lon="-73.95499"/>
   <trkpt lat="40.79636" lon="-73.95544"/>
   <trkpt lat="40.79613" lon="-73.95566"/>
   <trkpt lat="40.79606" lon="-73.95569"/>
   <trkpt lat="40.79593" lon="-73.95571"/>
   <trkpt lat="40.79581" lon="-73.95569"/>
   <trkpt lat="40.7957" lon="-73.9556"/>
   <trkpt lat="40.7956" lon="-73.95542"/>
   <trkpt lat="40.79557" lon="-73.95533"/>
   <trkpt lat="40.79555" lon="-73.95518"/>
   <trkpt lat="40.79557" lon="-73.95501"/>
   <trkpt lat="40.79566" lon="-73.9548"/>
   <trkpt lat="40.79587" lon="-73.95447"/>
   <trkpt lat="40.79594" lon="-73.95431"/>
   <trkpt lat="40.796" lon="-73.95405"/>
   <trkpt lat="40.796" lon="-73.95385"/>
   <trkpt lat="40.79596" lon="-73.95367"/>
   <trkpt lat="40.79588" lon="-73.95353"/>
   <trkpt lat="40.79588" lon="-73.95352"/>
   <trkpt lat="40.79577" lon="-73.9534"/>
   <trkpt lat="40.79562" lon="-73.95333"/>
   <trkpt lat="40.79551" lon="-73.95332"/>
   <trkpt lat="40.79538" lon="-73.95337"/>
   <trkpt lat="40.79524" lon="-73.95348"/>
   <trkpt lat="40.79514" lon="-73.95364"/>
   <trkpt lat="40.79505" lon="-73.95389"/>
   <trkpt lat="40.79489" lon="-73.95423"/>
   <trkpt lat="40.79479" lon="-73.95439"/>
   <trkpt lat="40.79467" lon="-73.95453"/>
   <trkpt lat="40.7945" lon="-73.95467"/>
   <trkpt lat="40.79434" lon="-73.95479"/>
   <trkpt lat="40.79424" lon="-73.95482"/>
   <trkpt lat="40.79413" lon="-73.95485"/>
   <trkpt lat="40.79413" lon="-73.95485"/>
   <trkpt lat="40.79335" lon="-73.95502"/>
   <trkpt lat="40.79308" lon="-73.95506"/>
   <trkpt lat="40.79286" lon="-73.95505"/>
   <trkpt lat="40.79248" lon="-73.95498"/>
   <trkpt lat="40.79232" lon="-73.955"/>
   <trkpt lat="40.79216" lon="-73.95508"/>
   <trkpt lat="40.79196" lon="-73.95527"/>
   <trkpt lat="40.79173" lon="-73.95556"/>
   <trkpt lat="40.79132" lon="-73.95608"/>
   <trkpt lat="40.79089" lon="-73.95657"/>
   <trkpt lat="40.79078" lon="-73.95667"/>
   <trkpt lat="40.79038" lon="-73.95699"/>
   <trkpt lat="40.79" lon="-73.95724"/>
   <trkpt lat="40.78989" lon="-73.9573"/>
   <trkpt lat="40.78973" lon="-73.95736"/>
   <trkpt lat="40.78966" lon="-73.95738"/>
   <trkpt lat="40.78966" lon="-73.95738"/>
   <trkpt lat="40.78948" lon="-73.9574"/>
   <trkpt lat="40.78934" lon="-73.95739"/>
   <trkpt lat="40.78927" lon="-73.95736"/>
   <trkpt lat="40.78913" lon="-73.95723"/>
   <trkpt lat="40.7889" lon="-73.95701"/>
   <trkpt lat="40.78883" lon="-73.95697"/>
   <trkpt lat="40.78866" lon="-73.9569"/>
   <trkpt lat="40.78849" lon="-73.95687"/>
   <trkpt lat="40.7883" lon="-73.95688"/>
   <trkpt lat="40.78814" lon="-73.95692"/>
   <trkpt lat="40.78791" lon="-73.95701"/>
   <trkpt lat="40.78772" lon="-73.95705"/>
   <trkpt lat="40.78731" lon="-73.95702"/>
   <trkpt lat="40.78704" lon="-73.957"/>
   <trkpt lat="40.78693" lon="-73.95702"/>
   <trkpt lat="40.78678" lon="-73.95708"/>
   <trkpt lat="40.78654" lon="-73.95721"/>
   <trkpt lat="40.78621" lon="-73.95743"/>
   <trkpt lat="40.78419" lon="-73.95891"/>
   <trkpt lat="40.78239" lon="-73.96022"/>
   <trkpt lat="40.78239" lon="-73.96022"/>
   <trkpt lat="40.78183" lon="-73.96065"/>
   <trkpt lat="40.78168" lon="-73.96085"/>
   <trkpt lat="40.78157" lon="-73.96113"/>
   <trkpt lat="40.78153" lon="-73.96138"/>
   <trkpt lat="40.78153" lon="-73.96166"/>
   <trkpt lat="40.78163" lon="-73.96236"/>
   <trkpt lat="40.78163" lon="-73.96254"/>
   <trkpt lat="40.78155" lon="-73.963"/>
   <trkpt lat="40.78144" lon="-73.9634"/>
   <trkpt lat="40.78128" lon="-73.96375"/>
   <trkpt lat="40.7811" lon="-73.96401"/>
   <trkpt lat="40.78096" lon="-73.96415"/>
   <trkpt lat="40.78071" lon="-73.96435"/>
   <trkpt lat="40.78035" lon="-73.96461"/>
   <trkpt lat="40.77976" lon="-73.96493"/>
   <trkpt lat="40.77944" lon="-73.96517"/>
   <trkpt lat="40.77924" lon="-73.96536"/>
   <trkpt lat="40.77912" lon="-73.9655"/>
   <trkpt lat="40.77898" lon="-73.96569"/>
   <trkpt lat="40.77898" lon="-73.96569"/>
   <trkpt lat="40.77866" lon="-73.9661"/>
   <trkpt lat="40.77851" lon="-73.96624"/>
   <trkpt lat="40.7781" lon="-73.96655"/>
   <trkpt lat="40.77791" lon="-73.96667"/>
   <trkpt lat="40.77757" lon="-73.96685"/>
   <trkpt lat="40.77705" lon="-73.96702"/>
   <trkpt lat="40.77625" lon="-73.96732"/>
   <trkpt lat="40.776" lon="-73.96728"/>
   <trkpt lat="40.77579" lon="-73.96725"/>
   <trkpt lat="40.77561" lon="-73.96729"/>
   <trkpt lat="40.77548" lon="-73.96738"/>
   <trkpt lat="40.77532" lon="-73.9676"/>
   <trkpt lat="40.77511" lon="-73.96808"/>
   <trkpt lat="40.77497" lon="-73.96835"/>
   <trkpt lat="40.77478" lon="-73.9686"/>
   <trkpt lat="40.7744" lon="-73.96898"/>
   <trkpt lat="40.7744" lon="-73.96898"/>
   <trkpt lat="40.77423" lon="-73.96911"/>
   <trkpt lat="40.77405" lon="-73.96917"/>
   <trkpt lat="40.77386" lon="-73.96917"/>
   <trkpt lat="40.77367" lon="-73.96913"/>
   <trkpt lat="40.77352" lon="-73.96907"/>
   <trkpt lat="40.77331" lon="-73.96893"/>
   <trkpt lat="40.77305" lon="-73.9688"/>
   <trkpt lat="40.77296" lon="-73.96878"/>
   <trkpt lat="40.77296" lon="-73.96878"/>
   <trkpt lat="40.77281" lon="-73.96879"/>
   <trkpt lat="40.77268" lon="-73.96882"/>
   <trkpt lat="40.77249" lon="-73.96889"/>
   <trkpt lat="40.77222" lon="-73.96903"/>
   <trkpt lat="40.77193" lon="-73.9692"/>
   <trkpt lat="40.77179" lon="-73.9693"/>
   <trkpt lat="40.77168" lon="-73.96941"/>
   <trkpt lat="40.7715" lon="-73.96967"/>
   <trkpt lat="40.77114" lon="-73.97042"/>
   <trkpt lat="40.77107" lon="-73.97054"/>
   <trkpt lat="40.77107" lon="-73.97054"/>
   <trkpt lat="40.77086" lon="-73.9708"/>
   <trkpt lat="40.77069" lon="-73.97093"/>
   <trkpt lat="40.77019" lon="-73.97121"/>
   <trkpt lat="40.76994" lon="-73.97141"/>
   <trkpt lat="40.76975" lon="-73.97169"/>
   <trkpt lat="40.76961" lon="-73.97198"/>
   <trkpt lat="40.76953" lon="-73.97224"/>
   <trkpt lat="40.76952" lon="-73.97235"/>
   <trkpt lat="40.76952" lon="-73.97247"/>
   <trkpt lat="40.76952" lon="-73.97247"/>
   <trkpt lat="40.76952" lon="-73.97259"/>
   <trkpt lat="40.76957" lon="-73.97279"/>
   <trkpt lat="40.76968" lon="-73.97307"/>
   <trkpt lat="40.7698" lon="-73.97332"/>
   <trkpt lat="40.76986" lon="-73.97347"/>
   <trkpt lat="40.7699" lon="-73.97369"/>
   <trkpt lat="40.76991" lon="-73.97398"/>
   <trkpt lat="40.76985" lon="-73.97432"/>
   <trkpt lat="40.76978" lon="-73.97451"/>
   <trkpt lat="40.76958" lon="-73.97479"/>
   <trkpt lat="40.76958" lon="-73.97479"/>
   <trkpt lat="40.76944" lon="-73.97496"/>
   <trkpt lat="40.76919" lon="-73.97519"/>
   <trkpt lat="40.769" lon="-73.97535"/>
   <trkpt lat="40.76854" lon="-73.97564"/>
   <trkpt lat="40.76787" lon="-73.97604"/>
   <trkpt lat="40.7675" lon="-73.97627"/>
   <trkpt lat="40.7673" lon="-73.9765"/>
   <trkpt lat="40.7673" lon="-73.9765"/>
   <trkpt lat="40.76723" lon="-73.97662"/>
   <trkpt lat="40.7672" lon="-73.97673"/>
   <trkpt lat="40.76718" lon="-73.97688"/>
   <trkpt lat="40.76718" lon="-73.97714"/>
   <trkpt lat="40.76721" lon="-73.97737"/>
   <trkpt lat="40.76728" lon="-73.97768"/>
   <trkpt lat="40.76746" lon="-73.97813"/>
   <trkpt lat="40.76773" lon="-73.97868"/>
   <trkpt lat="40.76773" lon="-73.97868"/>
   <trkpt lat="40.76804" lon="-73.97919"/>
   <trkpt lat="40.76827" lon="-73.9795"/>
   <trkpt lat="40.76851" lon="-73.97972"/>
   <trkpt lat="40.76858" lon="-73.97978"/>
   <trkpt lat="40.76858" lon="-73.97978"/>
   <trkpt lat="40.76879" lon="-73.97991"/>
   <trkpt lat="40.7689" lon="-73.97995"/>
   <trkpt lat="40.76903" lon="-73.97997"/>
   <trkpt lat="40.76912" lon="-73.97995"/>
   <trkpt lat="40.76927" lon="-73.9799"/>
   <trkpt lat="40.7694" lon="-73.97985"/>
   <trkpt lat="40.76963" lon="-73.97969"/>
   <trkpt lat="40.76986" lon="-73.9795"/>
   <trkpt lat="40.77024" lon="-73.97912"/>
   <trkpt lat="40.77048" lon="-73.97886"/>
   <trkpt lat="40.77087" lon="-73.97839"/>
   <trkpt lat="40.77087" lon="-73.97839"/>
   <trkpt lat="40.77118" lon="-73.97791"/>
   <trkpt lat="40.77137" lon="-73.9776"/>
   <trkpt lat="40.77153" lon="-73.97739"/>
   <trkpt lat="40.77175" lon="-73.97716"/>
   <trkpt lat="40.77175" lon="-73.97716"/>
   <trkpt lat="40.77204" lon="-73.97694"/>
   <trkpt lat="40.77225" lon="-73.97681"/>
   <trkpt lat="40.77269" lon="-73.97663"/>
   <trkpt lat="40.77287" lon="-73.97656"/>
   <trkpt lat="40.77321" lon="-73.9764"/>
   <trkpt lat="40.77341" lon="-73.9763"/>
   <trkpt lat="40.77341" lon="-73.9763"/>
   <trkpt lat="40.77366" lon="-73.97615"/>
   <trkpt lat="40.77416" lon="-73.97581"/>
   <trkpt lat="40.77431" lon="-73.97568"/>
   <trkpt lat="40.77452" lon="-73.97545"/>
   <trkpt lat="40.77458" lon="-73.97528"/>
   <trkpt lat="40.7747" lon="-73.97485"/>
   <trkpt lat="40.77481" lon="-73.97448"/>
   <trkpt lat="40.77493" lon="-73.9743"/>
   <trkpt lat="40.77506" lon="-73.97419"/>
   <trkpt lat="40.77517" lon="-73.97412"/>
   <trkpt lat="40.77542" lon="-73.97402"/>
   <trkpt lat="40.77556" lon="-73.97401"/>
   <trkpt lat="40.77556" lon="-73.97401"/>
   <trkpt lat="40.77577" lon="-73.97401"/>
   <trkpt lat="40.77703" lon="-73.97417"/>
   <trkpt lat="40.7772" lon="-73.97415"/>
   <trkpt lat="40.77739" lon="-73.97409"/>
   <trkpt lat="40.77767" lon="-73.97394"/>
   <trkpt lat="40.77785" lon="-73.97378"/>
   <trkpt lat="40.77797" lon="-73.97366"/>
   <trkpt lat="40.77797" lon="-73.97366"/>
   <trkpt lat="40.77818" lon="-73.97334"/>
   <trkpt lat="40.77871" lon="-73.97241"/>
   <trkpt lat="40.77883" lon="-73.97222"/>
   <trkpt lat="40.7791" lon="-73.97193"/>
   <trkpt lat="40.77959" lon="-73.97146"/>
   <trkpt lat="40.77959" lon="-73.97146"/>
   <trkpt lat="40.77982" lon="-73.97122"/>
   <trkpt lat="40.78006" lon="-73.9709"/>
   <trkpt lat="40.78011" lon="-73.97082"/>
   <trkpt lat="40.78011" lon="-73.97082"/>
   <trkpt lat="40.7806" lon="-73.97005"/>
   <trkpt lat="40.78073" lon="-73.96987"/>
   <trkpt lat="40.7809" lon="-73.96969"/>
   <trkpt lat="40.78109" lon="-73.96953"/>
   <trkpt lat="40.78125" lon="-73.96945"/>
   <trkpt lat="40.78146" lon="-73.96939"/>
   <trkpt lat="40.78155" lon="-73.96938"/>
   <trkpt lat="40.78155" lon="-73.96938"/>
   <trkpt lat="40.78179" lon="-73.96939"/>
   <trkpt lat="40.78215" lon="-73.96943"/>
   <trkpt lat="40.78231" lon="-73.96943"/>
   <trkpt lat="40.78253" lon="-73.96937"/>
   <trkpt lat="40.78262" lon="-73.96933"/>
   <trkpt lat="40.78262" lon="-73.96933"/>
   <trkpt lat="40.78275" lon="-73.96924"/>
   <trkpt lat="40.78291" lon="-73.96907"/>
   <trkpt lat="40.78307" lon="-73.96884"/>
   <trkpt lat="40.78332" lon="-73.96835"/>
   <trkpt lat="40.78365" lon="-73.96792"/>
   <trkpt lat="40.78396" lon="-73.96762"/>
   <trkpt lat="40.78396" lon="-73.96762"/>
   <trkpt lat="40.78435" lon="-73.96729"/>
   <trkpt lat="40.78452" lon="-73.96719"/>
   <trkpt lat="40.7847" lon="-73.96712"/>
   <trkpt lat="40.78491" lon="-73.9671"/>
   <trkpt lat="40.78499" lon="-73.9671"/>
   <trkpt lat="40.78499" lon="-73.9671"/>
   <trkpt lat="40.78512" lon="-73.96713"/>
   <trkpt lat="40.78531" lon="-73.9672"/>
   <trkpt lat="40.78596" lon="-73.96747"/>
   <trkpt lat="40.78618" lon="-73.96754"/>
   <trkpt lat="40.78643" lon="-73.96755"/>
   <trkpt lat="40.78657" lon="-73.96755"/>
   <trkpt lat="40.78679" lon="-73.9675"/>
   <trkpt lat="40.78697" lon="-73.96744"/>
   <trkpt lat="40.78719" lon="-73.96732"/>
   <trkpt lat="40.78738" lon="-73.96719"/>
   <trkpt lat="40.78738" lon="-73.96719"/>
   <trkpt lat="40.7876" lon="-73.967"/>
   <trkpt lat="40.78792" lon="-73.96668"/>
   <trkpt lat="40.788" lon="-73.96658"/>
   <trkpt lat="40.78826" lon="-73.96623"/>
   <trkpt lat="40.78842" lon="-73.96592"/>
   <trkpt lat="40.78847" lon="-73.96577"/>
   <trkpt lat="40.78847" lon="-73.96577"/>
   <trkpt lat="40.78873" lon="-73.96495"/>
   <trkpt lat="40.78873" lon="-73.96495"/>
   <trkpt lat="40.78879" lon="-73.96478"/>
   <trkpt lat="40.78886" lon="-73.96462"/>
   <trkpt lat="40.78898" lon="-73.96444"/>
   <trkpt lat="40.78914" lon="-73.96429"/>
   <trkpt lat="40.78928" lon="-73.9642"/>
   <trkpt lat="40.78946" lon="-73.96416"/>
   <trkpt lat="40.78946" lon="-73.96416"/>
   <trkpt lat="40.79002" lon="-73.96422"/>
   <trkpt lat="40.79025" lon="-73.9642"/>
   <trkpt lat="40.79041" lon="-73.96413"/>
   <trkpt lat="40.79054" lon="-73.96405"/>
   <trkpt lat="40.79054" lon="-73.96405"/>
   <trkpt lat="40.7906" lon="-73.964"/>
   <trkpt lat="40.79077" lon="-73.96382"/>
   <trkpt lat="40.79091" lon="-73.96355"/>
   <trkpt lat="40.79094" lon="-73.96347"/>
   <trkpt lat="40.79094" lon="-73.96347"/>
   <trkpt lat="40.79109" lon="-73.96315"/>
   <trkpt lat="40.79129" lon="-73.96287"/>
   <trkpt lat="40.79159" lon="-73.9626"/>
   <trkpt lat="40.79169" lon="-73.96253"/>
   <trkpt lat="40.79195" lon="-73.9624"/>
   <trkpt lat="40.79203" lon="-73.96237"/>
   <trkpt lat="40.79203" lon="-73.96236"/>
   <trkpt lat="40.7924" lon="-73.96217"/>
   <trkpt lat="40.7928" lon="-73.96193"/>
   <trkpt lat="40.7931" lon="-73.96172"/>
   <trkpt lat="40.79323" lon="-73.96161"/>
   <trkpt lat="40.79323" lon="-73.96161"/>
   <trkpt lat="40.79347" lon="-73.96136"/>
   <trkpt lat="40.79368" lon="-73.96104"/>
   <trkpt lat="40.7937" lon="-73.961"/>
   <trkpt lat="40.7937" lon="-73.961"/>
   <trkpt lat="40.79383" lon="-73.96071"/>
   <trkpt lat="40.7939" lon="-73.96052"/>
   <trkpt lat="40.79412" lon="-73.95972"/>
   <trkpt lat="40.79423" lon="-73.95953"/>
   <trkpt lat="40.79443" lon="-73.95933"/>
   <trkpt lat="40.79458" lon="-73.95924"/>
   <trkpt lat="40.79481" lon="-73.95914"/>
   <trkpt lat="40.79494" lon="-73.95906"/>
   <trkpt lat="40.79508" lon="-73.95894"/>
   <trkpt lat="40.7952" lon="-73.95877"/>
   <trkpt lat="40.79529" lon="-73.9586"/>
   <trkpt lat="40.79543" lon="-73.95813"/>
   <trkpt lat="40.79554" lon="-73.95776"/>
   <trkpt lat="40.79568" lon="-73.95749"/>
   <trkpt lat="40.79582" lon="-73.95727"/>
   <trkpt lat="40.79602" lon="-73.95704"/>
   <trkpt lat="40.79623" lon="-73.95689"/>
   <trkpt lat="40.79651" lon="-73.95679"/>
   <trkpt lat="40.79669" lon="-73.9568"/>
   <trkpt lat="40.79686" lon="-73.95685"/>
   <trkpt lat="40.79692" lon="-73.9569"/>
   <trkpt lat="40.79692" lon="-73.9569"/>
   <trkpt lat="40.79709" lon="-73.95699"/>
   <trkpt lat="40.79719" lon="-73.95703"/>
   <trkpt lat="40.79734" lon="-73.95706"/>
   <trkpt lat="40.79749" lon="-73.95704"/>
   <trkpt lat="40.79767" lon="-73.95702"/>
   <trkpt lat="40.7978" lon="-73.95705"/>
   <trkpt lat="40.79794" lon="-73.95713"/>
   <trkpt lat="40.79806" lon="-73.95724"/>
   <trkpt lat="40.79817" lon="-73.95742"/>
   <trkpt lat="40.7983" lon="-73.95807"/>
   <trkpt lat="40.79835" lon="-73.95819"/>
   <trkpt lat="40.79842" lon="-73.95831"/>
   <trkpt lat="40.79852" lon="-73.95843"/>
   <trkpt lat="40.79864" lon="-73.9585"/>
   <trkpt lat="40.79881" lon="-73.95854"/>
   <trkpt lat="40.79899" lon="-73.95851"/>
   <trkpt lat="40.79912" lon="-73.95846"/>
   <trkpt lat="40.79912" lon="-73.95846"/>
   <trkpt lat="40.79932" lon="-73.95829"/>
   <trkpt lat="40.79947" lon="-73.95809"/>
   <trkpt lat="40.79954" lon="-73.95795"/>
   <trkpt lat="40.79957" lon="-73.95776"/>
   <trkpt lat="40.79957" lon="-73.95768"/>
   <trkpt lat="40.79953" lon="-73.95749"/>
   <trkpt lat="40.79945" lon="-73.95721"/>
   <trkpt lat="40.79942" lon="-73.957"/>
   <trkpt lat="40.79939" lon="-73.95656"/>
   <trkpt lat="40.79935" lon="-73.95629"/>
   <trkpt lat="40.79924" lon="-73.95583"/>
   <trkpt lat="40.79919" lon="-73.95568"/>
   <trkpt lat="40.79919" lon="-73.95568"/>
   <trkpt lat="40.79906" lon="-73.95538"/>
   <trkpt lat="40.79891" lon="-73.95511"/>
   <trkpt lat="40.79863" lon="-73.95467"/>
   <trkpt lat="40.79863" lon="-73.95467"/>
   <trkpt lat="40.7983" lon="-73.95436"/>
   <trkpt lat="40.79815" lon="-73.9543"/>
   <trkpt lat="40.79788" lon="-73.95431"/>
   <trkpt lat="40.79769" lon="-73.95434"/>
   <trkpt lat="40.79762" lon="-73.95418"/>
   <trkpt lat="40.79762" lon="-73.95418"/>
   <trkpt lat="40.79788" lon="-73.95382"/>
   <trkpt lat="40.79791" lon="-73.95376"/>
   <trkpt lat="40.79796" lon="-73.95376"/>
   <trkpt lat="40.79815" lon="-73.9538"/>
   <trkpt lat="40.79826" lon="-73.95383"/>
   <trkpt lat="40.79844" lon="-73.95391"/>
   <trkpt lat="40.79844" lon="-73.95391"/>
   <trkpt lat="40.79843" lon="-73.95371"/>
   <trkpt lat="40.79839" lon="-73.95354"/>
   <trkpt lat="40.79833" lon="-73.95341"/>
   <trkpt lat="40.79833" lon="-73.95341"/>
   <trkpt lat="40.79817" lon="-73.95309"/>
   <trkpt lat="40.79817" lon="-73.95309"/>
   <trkpt lat="40.79814" lon="-73.9529"/>
   <trkpt lat="40.79817" lon="-73.95272"/>
   <trkpt lat="40.79822" lon="-73.95265"/>
  </trkseg>
 </trk>
</gpx>
