<?xml version="1.0" encoding="utf-8"?>
<gpx xmlns="http://www.topografix.com/GPX/1/1" xmlns:xsi="http://www.w3.org/2001/XMLSchema-instance" version="1.1" xsi:schemaLocation="http://www.topografix.com/GPX/1/1 http://www.topografix.com/GPX/1/1/gpx.xsd" creator="https://trailrunproject.com">
<metadata><name>Hollywood Sign and Bronson Caves</name><author><name/><link href="https://www.trailrunproject.com/user/200107500/john-mckinney"/></author><copyright author="MTB Project"><year>2023</year></copyright></metadata><trk><name>Hollywood Sign and Bronson Caves</name><link href="https://www.trailrunproject.com/trail/7021675/hollywood-sign-and-bronson-caves"/><trkseg><trkpt lon="-118.314258" lat="34.124466"><ele>193.58</ele><time>2022-02-21T14:34:11-07:00</time></trkpt><trkpt lon="-118.314169" lat="34.124376"><ele>195.01</ele><time>2022-02-21T14:35:11-07:00</time></trkpt><trkpt lon="-118.314537" lat="34.123848"><ele>197.22</ele><time>2022-02-21T14:36:11-07:00</time></trkpt><trkpt lon="-118.314878" lat="34.122867"><ele>199.9</ele><time>2022-02-21T14:37:11-07:00</time></trkpt><trkpt lon="-118.314977" lat="34.122049"><ele>202.86</ele><time>2022-02-21T14:38:11-07:00</time></trkpt><trkpt lon="-118.314977" lat="34.121528"><ele>205.49</ele><time>2022-02-21T14:39:11-07:00</time></trkpt><trkpt lon="-118.313737" lat="34.121037"><ele>206.81</ele><time>2022-02-21T14:40:11-07:00</time></trkpt><trkpt lon="-118.313648" lat="34.12164"><ele>206.7</ele><time>2022-02-21T14:41:11-07:00</time></trkpt><trkpt lon="-118.314977" lat="34.121528"><ele>205.17</ele><time>2022-02-21T14:42:11-07:00</time></trkpt><trkpt lon="-118.314968" lat="34.122049"><ele>202.54</ele><time>2022-02-21T14:43:11-07:00</time></trkpt><trkpt lon="-118.314869" lat="34.122867"><ele>199.68</ele><time>2022-02-21T14:44:11-07:00</time></trkpt><trkpt lon="-118.314537" lat="34.123848"><ele>197.04</ele><time>2022-02-21T14:45:11-07:00</time></trkpt><trkpt lon="-118.314169" lat="34.124376"><ele>194.9</ele><time>2022-02-21T14:46:11-07:00</time></trkpt><trkpt lon="-118.314267" lat="34.124466"><ele>195.63</ele><time>2022-02-21T14:47:11-07:00</time></trkpt><trkpt lon="-118.313666" lat="34.12483"><ele>199.6</ele><time>2022-02-21T14:48:11-07:00</time></trkpt><trkpt lon="-118.312704" lat="34.125641"><ele>205.26</ele><time>2022-02-21T14:49:11-07:00</time></trkpt><trkpt lon="-118.311743" lat="34.126451"><ele>212.04</ele><time>2022-02-21T14:50:11-07:00</time></trkpt><trkpt lon="-118.311537" lat="34.127158"><ele>218.98</ele><time>2022-02-21T14:51:11-07:00</time></trkpt><trkpt lon="-118.310333" lat="34.127819"><ele>225.91</ele><time>2022-02-21T14:52:11-07:00</time></trkpt><trkpt lon="-118.309183" lat="34.127358"><ele>232.73</ele><time>2022-02-21T14:53:11-07:00</time></trkpt><trkpt lon="-118.309012" lat="34.127552"><ele>239.45</ele><time>2022-02-21T14:54:11-07:00</time></trkpt><trkpt lon="-118.309165" lat="34.127857"><ele>247.8</ele><time>2022-02-21T14:55:11-07:00</time></trkpt><trkpt lon="-118.308985" lat="34.128266"><ele>258.14</ele><time>2022-02-21T14:56:11-07:00</time></trkpt><trkpt lon="-118.308716" lat="34.129299"><ele>269.01</ele><time>2022-02-21T14:57:11-07:00</time></trkpt><trkpt lon="-118.30788" lat="34.13005"><ele>280.07</ele><time>2022-02-21T14:58:11-07:00</time></trkpt><trkpt lon="-118.307036" lat="34.130801"><ele>290.81</ele><time>2022-02-21T14:59:11-07:00</time></trkpt><trkpt lon="-118.306434" lat="34.131716"><ele>300.86</ele><time>2022-02-21T15:00:11-07:00</time></trkpt><trkpt lon="-118.30559" lat="34.131805"><ele>310.22</ele><time>2022-02-21T15:01:11-07:00</time></trkpt><trkpt lon="-118.305141" lat="34.132036"><ele>318.06</ele><time>2022-02-21T15:02:11-07:00</time></trkpt><trkpt lon="-118.304835" lat="34.132229"><ele>324.63</ele><time>2022-02-21T15:03:11-07:00</time></trkpt><trkpt lon="-118.305446" lat="34.132616"><ele>331.25</ele><time>2022-02-21T15:04:11-07:00</time></trkpt><trkpt lon="-118.305069" lat="34.133292"><ele>338.01</ele><time>2022-02-21T15:05:11-07:00</time></trkpt><trkpt lon="-118.305149" lat="34.133761"><ele>344.9</ele><time>2022-02-21T15:06:11-07:00</time></trkpt><trkpt lon="-118.305536" lat="34.133709"><ele>352</ele><time>2022-02-21T15:07:11-07:00</time></trkpt><trkpt lon="-118.306668" lat="34.134006"><ele>358.87</ele><time>2022-02-21T15:08:11-07:00</time></trkpt><trkpt lon="-118.307296" lat="34.133738"><ele>364.51</ele><time>2022-02-21T15:09:11-07:00</time></trkpt><trkpt lon="-118.307198" lat="34.134415"><ele>368.11</ele><time>2022-02-21T15:10:11-07:00</time></trkpt><trkpt lon="-118.307728" lat="34.134675"><ele>368.74</ele><time>2022-02-21T15:11:11-07:00</time></trkpt><trkpt lon="-118.308761" lat="34.134467"><ele>367.24</ele><time>2022-02-21T15:12:11-07:00</time></trkpt><trkpt lon="-118.309659" lat="34.134177"><ele>365.58</ele><time>2022-02-21T15:13:11-07:00</time></trkpt><trkpt lon="-118.310593" lat="34.133999"><ele>364.28</ele><time>2022-02-21T15:14:11-07:00</time></trkpt><trkpt lon="-118.310602" lat="34.133069"><ele>364.25</ele><time>2022-02-21T15:15:11-07:00</time></trkpt><trkpt lon="-118.31115" lat="34.132831"><ele>365.44</ele><time>2022-02-21T15:16:11-07:00</time></trkpt><trkpt lon="-118.311986" lat="34.133538"><ele>367.17</ele><time>2022-02-21T15:17:11-07:00</time></trkpt><trkpt lon="-118.312264" lat="34.132616"><ele>369.35</ele><time>2022-02-21T15:18:11-07:00</time></trkpt><trkpt lon="-118.31292" lat="34.132861"><ele>371.5</ele><time>2022-02-21T15:19:11-07:00</time></trkpt><trkpt lon="-118.313252" lat="34.133471"><ele>373.39</ele><time>2022-02-21T15:20:11-07:00</time></trkpt><trkpt lon="-118.313648" lat="34.132965"><ele>374.88</ele><time>2022-02-21T15:21:11-07:00</time></trkpt><trkpt lon="-118.313648" lat="34.132512"><ele>376</ele><time>2022-02-21T15:22:11-07:00</time></trkpt><trkpt lon="-118.314249" lat="34.133077"><ele>376.88</ele><time>2022-02-21T15:23:11-07:00</time></trkpt><trkpt lon="-118.314501" lat="34.132668"><ele>377.74</ele><time>2022-02-21T15:24:11-07:00</time></trkpt><trkpt lon="-118.314591" lat="34.132117"><ele>378.63</ele><time>2022-02-21T15:25:11-07:00</time></trkpt><trkpt lon="-118.315247" lat="34.132497"><ele>379.46</ele><time>2022-02-21T15:26:11-07:00</time></trkpt><trkpt lon="-118.315633" lat="34.132177"><ele>380.23</ele><time>2022-02-21T15:27:11-07:00</time></trkpt><trkpt lon="-118.315786" lat="34.132512"><ele>380.96</ele><time>2022-02-21T15:28:11-07:00</time></trkpt><trkpt lon="-118.31566" lat="34.133136"><ele>382.17</ele><time>2022-02-21T15:29:11-07:00</time></trkpt><trkpt lon="-118.31601" lat="34.133441"><ele>384.1</ele><time>2022-02-21T15:30:11-07:00</time></trkpt><trkpt lon="-118.315875" lat="34.133805"><ele>386.81</ele><time>2022-02-21T15:31:11-07:00</time></trkpt><trkpt lon="-118.31592" lat="34.134318"><ele>390.21</ele><time>2022-02-21T15:32:11-07:00</time></trkpt><trkpt lon="-118.315624" lat="34.134229"><ele>393.84</ele><time>2022-02-21T15:33:11-07:00</time></trkpt><trkpt lon="-118.315516" lat="34.133932"><ele>397.75</ele><time>2022-02-21T15:34:11-07:00</time></trkpt><trkpt lon="-118.315067" lat="34.133716"><ele>401.95</ele><time>2022-02-21T15:35:11-07:00</time></trkpt><trkpt lon="-118.315157" lat="34.133396"><ele>406.26</ele><time>2022-02-21T15:36:11-07:00</time></trkpt><trkpt lon="-118.315067" lat="34.133255"><ele>410.53</ele><time>2022-02-21T15:37:11-07:00</time></trkpt><trkpt lon="-118.314824" lat="34.133292"><ele>415</ele><time>2022-02-21T15:38:11-07:00</time></trkpt><trkpt lon="-118.314797" lat="34.133887"><ele>419.75</ele><time>2022-02-21T15:39:11-07:00</time></trkpt><trkpt lon="-118.315067" lat="34.134266"><ele>424.82</ele><time>2022-02-21T15:40:11-07:00</time></trkpt><trkpt lon="-118.314905" lat="34.134549"><ele>431.25</ele><time>2022-02-21T15:41:11-07:00</time></trkpt><trkpt lon="-118.315103" lat="34.135136"><ele>439.43</ele><time>2022-02-21T15:42:11-07:00</time></trkpt><trkpt lon="-118.31601" lat="34.135568"><ele>448.74</ele><time>2022-02-21T15:43:11-07:00</time></trkpt><trkpt lon="-118.317259" lat="34.135352"><ele>458.32</ele><time>2022-02-21T15:44:11-07:00</time></trkpt><trkpt lon="-118.319046" lat="34.135657"><ele>467.19</ele><time>2022-02-21T15:45:11-07:00</time></trkpt><trkpt lon="-118.319657" lat="34.135389"><ele>475.1</ele><time>2022-02-21T15:46:11-07:00</time></trkpt><trkpt lon="-118.320421" lat="34.135501"><ele>482.31</ele><time>2022-02-21T15:47:11-07:00</time></trkpt><trkpt lon="-118.320987" lat="34.135032"><ele>489.3</ele><time>2022-02-21T15:48:11-07:00</time></trkpt><trkpt lon="-118.322487" lat="34.134861"><ele>496.59</ele><time>2022-02-21T15:49:11-07:00</time></trkpt><trkpt lon="-118.322433" lat="34.134564"><ele>503.35</ele><time>2022-02-21T15:50:11-07:00</time></trkpt><trkpt lon="-118.322182" lat="34.134497"><ele>505.6</ele><time>2022-02-21T15:51:11-07:00</time></trkpt><trkpt lon="-118.322442" lat="34.134564"><ele>502.02</ele><time>2022-02-21T15:52:11-07:00</time></trkpt><trkpt lon="-118.322487" lat="34.134861"><ele>495.87</ele><time>2022-02-21T15:53:11-07:00</time></trkpt><trkpt lon="-118.320987" lat="34.135032"><ele>489.23</ele><time>2022-02-21T15:54:11-07:00</time></trkpt><trkpt lon="-118.320421" lat="34.135501"><ele>482.44</ele><time>2022-02-21T15:55:11-07:00</time></trkpt><trkpt lon="-118.319657" lat="34.135389"><ele>475.23</ele><time>2022-02-21T15:56:11-07:00</time></trkpt><trkpt lon="-118.319046" lat="34.135657"><ele>467.15</ele><time>2022-02-21T15:57:11-07:00</time></trkpt><trkpt lon="-118.317259" lat="34.135352"><ele>457.98</ele><time>2022-02-21T15:58:11-07:00</time></trkpt><trkpt lon="-118.31601" lat="34.135568"><ele>448.34</ele><time>2022-02-21T15:59:11-07:00</time></trkpt><trkpt lon="-118.315103" lat="34.135136"><ele>439.13</ele><time>2022-02-21T16:00:11-07:00</time></trkpt><trkpt lon="-118.314905" lat="34.134541"><ele>431.34</ele><time>2022-02-21T16:01:11-07:00</time></trkpt><trkpt lon="-118.315067" lat="34.134252"><ele>425.22</ele><time>2022-02-21T16:02:11-07:00</time></trkpt><trkpt lon="-118.314797" lat="34.133887"><ele>419.96</ele><time>2022-02-21T16:03:11-07:00</time></trkpt><trkpt lon="-118.314824" lat="34.133277"><ele>415.16</ele><time>2022-02-21T16:04:11-07:00</time></trkpt><trkpt lon="-118.315067" lat="34.133255"><ele>410.67</ele><time>2022-02-21T16:05:11-07:00</time></trkpt><trkpt lon="-118.315166" lat="34.133396"><ele>406.26</ele><time>2022-02-21T16:06:11-07:00</time></trkpt><trkpt lon="-118.315076" lat="34.133716"><ele>401.89</ele><time>2022-02-21T16:07:11-07:00</time></trkpt><trkpt lon="-118.315516" lat="34.133932"><ele>397.71</ele><time>2022-02-21T16:08:11-07:00</time></trkpt><trkpt lon="-118.315624" lat="34.134237"><ele>393.89</ele><time>2022-02-21T16:09:11-07:00</time></trkpt><trkpt lon="-118.315929" lat="34.134311"><ele>390.14</ele><time>2022-02-21T16:10:11-07:00</time></trkpt><trkpt lon="-118.315875" lat="34.133805"><ele>386.76</ele><time>2022-02-21T16:11:11-07:00</time></trkpt><trkpt lon="-118.31601" lat="34.133441"><ele>383.77</ele><time>2022-02-21T16:12:11-07:00</time></trkpt><trkpt lon="-118.315651" lat="34.133136"><ele>381.8</ele><time>2022-02-21T16:13:11-07:00</time></trkpt><trkpt lon="-118.315786" lat="34.132512"><ele>381.01</ele><time>2022-02-21T16:14:11-07:00</time></trkpt><trkpt lon="-118.315633" lat="34.132177"><ele>380.25</ele><time>2022-02-21T16:15:11-07:00</time></trkpt><trkpt lon="-118.315247" lat="34.132497"><ele>379.46</ele><time>2022-02-21T16:16:11-07:00</time></trkpt><trkpt lon="-118.314591" lat="34.132117"><ele>378.62</ele><time>2022-02-21T16:17:11-07:00</time></trkpt><trkpt lon="-118.314501" lat="34.132675"><ele>377.78</ele><time>2022-02-21T16:18:11-07:00</time></trkpt><trkpt lon="-118.314249" lat="34.133077"><ele>376.97</ele><time>2022-02-21T16:19:11-07:00</time></trkpt><trkpt lon="-118.313648" lat="34.132512"><ele>376.07</ele><time>2022-02-21T16:20:11-07:00</time></trkpt><trkpt lon="-118.313648" lat="34.132965"><ele>374.91</ele><time>2022-02-21T16:21:11-07:00</time></trkpt><trkpt lon="-118.313252" lat="34.133471"><ele>373.35</ele><time>2022-02-21T16:22:11-07:00</time></trkpt><trkpt lon="-118.31292" lat="34.132861"><ele>371.41</ele><time>2022-02-21T16:23:11-07:00</time></trkpt><trkpt lon="-118.312264" lat="34.132616"><ele>369.27</ele><time>2022-02-21T16:24:11-07:00</time></trkpt><trkpt lon="-118.311986" lat="34.13353"><ele>367.22</ele><time>2022-02-21T16:25:11-07:00</time></trkpt><trkpt lon="-118.31115" lat="34.132831"><ele>365.54</ele><time>2022-02-21T16:26:11-07:00</time></trkpt><trkpt lon="-118.310602" lat="34.133062"><ele>364.58</ele><time>2022-02-21T16:27:11-07:00</time></trkpt><trkpt lon="-118.310593" lat="34.133999"><ele>364.69</ele><time>2022-02-21T16:28:11-07:00</time></trkpt><trkpt lon="-118.309659" lat="34.134177"><ele>365.89</ele><time>2022-02-21T16:29:11-07:00</time></trkpt><trkpt lon="-118.308761" lat="34.134467"><ele>368</ele><time>2022-02-21T16:30:11-07:00</time></trkpt><trkpt lon="-118.307728" lat="34.134675"><ele>369.93</ele><time>2022-02-21T16:31:11-07:00</time></trkpt><trkpt lon="-118.307207" lat="34.13443"><ele>368.86</ele><time>2022-02-21T16:32:11-07:00</time></trkpt><trkpt lon="-118.307296" lat="34.133738"><ele>364.72</ele><time>2022-02-21T16:33:11-07:00</time></trkpt><trkpt lon="-118.306659" lat="34.134006"><ele>358.83</ele><time>2022-02-21T16:34:11-07:00</time></trkpt><trkpt lon="-118.305536" lat="34.133709"><ele>351.84</ele><time>2022-02-21T16:35:11-07:00</time></trkpt><trkpt lon="-118.305149" lat="34.133761"><ele>344.87</ele><time>2022-02-21T16:36:11-07:00</time></trkpt><trkpt lon="-118.305069" lat="34.133292"><ele>338</ele><time>2022-02-21T16:37:11-07:00</time></trkpt><trkpt lon="-118.305446" lat="34.132616"><ele>331.28</ele><time>2022-02-21T16:38:11-07:00</time></trkpt><trkpt lon="-118.304835" lat="34.132229"><ele>325.11</ele><time>2022-02-21T16:39:11-07:00</time></trkpt><trkpt lon="-118.305141" lat="34.132028"><ele>318.34</ele><time>2022-02-21T16:40:11-07:00</time></trkpt><trkpt lon="-118.30559" lat="34.131805"><ele>310.04</ele><time>2022-02-21T16:41:11-07:00</time></trkpt><trkpt lon="-118.306434" lat="34.131716"><ele>300.8</ele><time>2022-02-21T16:42:11-07:00</time></trkpt><trkpt lon="-118.307036" lat="34.130801"><ele>290.66</ele><time>2022-02-21T16:43:11-07:00</time></trkpt><trkpt lon="-118.30788" lat="34.13005"><ele>279.85</ele><time>2022-02-21T16:44:11-07:00</time></trkpt><trkpt lon="-118.308716" lat="34.129299"><ele>268.82</ele><time>2022-02-21T16:45:11-07:00</time></trkpt><trkpt lon="-118.308985" lat="34.128266"><ele>257.59</ele><time>2022-02-21T16:46:11-07:00</time></trkpt><trkpt lon="-118.309156" lat="34.127849"><ele>247.74</ele><time>2022-02-21T16:47:11-07:00</time></trkpt><trkpt lon="-118.309012" lat="34.127552"><ele>240.01</ele><time>2022-02-21T16:48:11-07:00</time></trkpt><trkpt lon="-118.309183" lat="34.127358"><ele>232.92</ele><time>2022-02-21T16:49:11-07:00</time></trkpt><trkpt lon="-118.310333" lat="34.127819"><ele>225.94</ele><time>2022-02-21T16:50:11-07:00</time></trkpt><trkpt lon="-118.311537" lat="34.127158"><ele>218.94</ele><time>2022-02-21T16:51:11-07:00</time></trkpt><trkpt lon="-118.311743" lat="34.126451"><ele>211.71</ele><time>2022-02-21T16:52:11-07:00</time></trkpt><trkpt lon="-118.312704" lat="34.125641"><ele>204.6</ele><time>2022-02-21T16:53:11-07:00</time></trkpt><trkpt lon="-118.313657" lat="34.12483"><ele>198.77</ele><time>2022-02-21T16:54:11-07:00</time></trkpt><trkpt lon="-118.314276" lat="34.124466"><ele>195.52</ele><time>2022-02-21T16:55:11-07:00</time></trkpt></trkseg></trk></gpx>
