<?xml version="1.0" encoding="utf-8"?>
<gpx xmlns="http://www.topografix.com/GPX/1/1" xmlns:xsi="http://www.w3.org/2001/XMLSchema-instance" version="1.1" xsi:schemaLocation="http://www.topografix.com/GPX/1/1 http://www.topografix.com/GPX/1/1/gpx.xsd" creator="https://trailrunproject.com">
<metadata><name>California Coastal Trail: Presidio</name><author><name/><link href="https://www.trailrunproject.com/user/7028206/phil-digirolamo"/></author><copyright author="MTB Project"><year>2024</year></copyright></metadata><trk><name>California Coastal Trail: Presidio</name><link href="https://www.trailrunproject.com/trail/7008403/california-coastal-trail-presidio"/><trkseg><trkpt lon="-122.485379" lat="37.789928"><ele>16.99</ele><time>2023-11-17T13:34:15-07:00</time></trkpt><trkpt lon="-122.485361" lat="37.789992"><ele>15.14</ele><time>2023-11-17T13:35:15-07:00</time></trkpt><trkpt lon="-122.485172" lat="37.79002"><ele>12.29</ele><time>2023-11-17T13:36:15-07:00</time></trkpt><trkpt lon="-122.485172" lat="37.790247"><ele>10.19</ele><time>2023-11-17T13:37:15-07:00</time></trkpt><trkpt lon="-122.484822" lat="37.790659"><ele>9.87</ele><time>2023-11-17T13:38:15-07:00</time></trkpt><trkpt lon="-122.483906" lat="37.791191"><ele>10.3</ele><time>2023-11-17T13:39:15-07:00</time></trkpt><trkpt lon="-122.483816" lat="37.791717"><ele>10.33</ele><time>2023-11-17T13:40:15-07:00</time></trkpt><trkpt lon="-122.483825" lat="37.791923"><ele>9.97</ele><time>2023-11-17T13:41:15-07:00</time></trkpt><trkpt lon="-122.483205" lat="37.79325"><ele>9.62</ele><time>2023-11-17T13:42:15-07:00</time></trkpt><trkpt lon="-122.483106" lat="37.793669"><ele>9.47</ele><time>2023-11-17T13:43:15-07:00</time></trkpt><trkpt lon="-122.482783" lat="37.794166"><ele>9.8</ele><time>2023-11-17T13:44:15-07:00</time></trkpt><trkpt lon="-122.482585" lat="37.794719"><ele>10.95</ele><time>2023-11-17T13:45:15-07:00</time></trkpt><trkpt lon="-122.482217" lat="37.795117"><ele>12.85</ele><time>2023-11-17T13:46:15-07:00</time></trkpt><trkpt lon="-122.481929" lat="37.79506"><ele>15.24</ele><time>2023-11-17T13:47:15-07:00</time></trkpt><trkpt lon="-122.481741" lat="37.794556"><ele>17.99</ele><time>2023-11-17T13:48:15-07:00</time></trkpt><trkpt lon="-122.481633" lat="37.79445"><ele>20.93</ele><time>2023-11-17T13:49:15-07:00</time></trkpt><trkpt lon="-122.481022" lat="37.794421"><ele>23.72</ele><time>2023-11-17T13:50:15-07:00</time></trkpt><trkpt lon="-122.480932" lat="37.794457"><ele>26.28</ele><time>2023-11-17T13:51:15-07:00</time></trkpt><trkpt lon="-122.480995" lat="37.794577"><ele>28.88</ele><time>2023-11-17T13:52:15-07:00</time></trkpt><trkpt lon="-122.480995" lat="37.794861"><ele>31.74</ele><time>2023-11-17T13:53:15-07:00</time></trkpt><trkpt lon="-122.480815" lat="37.795046"><ele>34.87</ele><time>2023-11-17T13:54:15-07:00</time></trkpt><trkpt lon="-122.480896" lat="37.79538"><ele>38.26</ele><time>2023-11-17T13:55:15-07:00</time></trkpt><trkpt lon="-122.480717" lat="37.795458"><ele>42.04</ele><time>2023-11-17T13:56:15-07:00</time></trkpt><trkpt lon="-122.48033" lat="37.795472"><ele>46.34</ele><time>2023-11-17T13:57:15-07:00</time></trkpt><trkpt lon="-122.479818" lat="37.795756"><ele>51.1</ele><time>2023-11-17T13:58:15-07:00</time></trkpt><trkpt lon="-122.479728" lat="37.796217"><ele>56</ele><time>2023-11-17T13:59:15-07:00</time></trkpt><trkpt lon="-122.47936" lat="37.796906"><ele>60.6</ele><time>2023-11-17T14:00:15-07:00</time></trkpt><trkpt lon="-122.479055" lat="37.797019"><ele>64.56</ele><time>2023-11-17T14:01:15-07:00</time></trkpt><trkpt lon="-122.478749" lat="37.797218"><ele>67.83</ele><time>2023-11-17T14:02:15-07:00</time></trkpt><trkpt lon="-122.478695" lat="37.797445"><ele>70.54</ele><time>2023-11-17T14:03:15-07:00</time></trkpt><trkpt lon="-122.478929" lat="37.797878"><ele>72.81</ele><time>2023-11-17T14:04:15-07:00</time></trkpt><trkpt lon="-122.479019" lat="37.79824"><ele>75.03</ele><time>2023-11-17T14:05:15-07:00</time></trkpt><trkpt lon="-122.478947" lat="37.798531"><ele>77.97</ele><time>2023-11-17T14:06:15-07:00</time></trkpt><trkpt lon="-122.478839" lat="37.79868"><ele>81.74</ele><time>2023-11-17T14:07:15-07:00</time></trkpt><trkpt lon="-122.478471" lat="37.799596"><ele>84.94</ele><time>2023-11-17T14:08:15-07:00</time></trkpt><trkpt lon="-122.478426" lat="37.800029"><ele>86.02</ele><time>2023-11-17T14:09:15-07:00</time></trkpt><trkpt lon="-122.478156" lat="37.800739"><ele>85.21</ele><time>2023-11-17T14:10:15-07:00</time></trkpt><trkpt lon="-122.477806" lat="37.801065"><ele>83.96</ele><time>2023-11-17T14:11:15-07:00</time></trkpt><trkpt lon="-122.477707" lat="37.801328"><ele>83.12</ele><time>2023-11-17T14:12:15-07:00</time></trkpt><trkpt lon="-122.477546" lat="37.80152"><ele>82.31</ele><time>2023-11-17T14:13:15-07:00</time></trkpt><trkpt lon="-122.477617" lat="37.801761"><ele>80.77</ele><time>2023-11-17T14:14:15-07:00</time></trkpt><trkpt lon="-122.477833" lat="37.802052"><ele>80.19</ele><time>2023-11-17T14:15:15-07:00</time></trkpt><trkpt lon="-122.47768" lat="37.802407"><ele>80.71</ele><time>2023-11-17T14:16:15-07:00</time></trkpt><trkpt lon="-122.477608" lat="37.802797"><ele>80.46</ele><time>2023-11-17T14:17:15-07:00</time></trkpt><trkpt lon="-122.477384" lat="37.803088"><ele>79.42</ele><time>2023-11-17T14:18:15-07:00</time></trkpt><trkpt lon="-122.477222" lat="37.803642"><ele>77.58</ele><time>2023-11-17T14:19:15-07:00</time></trkpt><trkpt lon="-122.476917" lat="37.804139"><ele>75.11</ele><time>2023-11-17T14:20:15-07:00</time></trkpt><trkpt lon="-122.476989" lat="37.804635"><ele>72.42</ele><time>2023-11-17T14:21:15-07:00</time></trkpt><trkpt lon="-122.476908" lat="37.804827"><ele>69.89</ele><time>2023-11-17T14:22:15-07:00</time></trkpt><trkpt lon="-122.476998" lat="37.804969"><ele>67.66</ele><time>2023-11-17T14:23:15-07:00</time></trkpt><trkpt lon="-122.476854" lat="37.805281"><ele>65.76</ele><time>2023-11-17T14:24:15-07:00</time></trkpt><trkpt lon="-122.476863" lat="37.805402"><ele>64.22</ele><time>2023-11-17T14:25:15-07:00</time></trkpt><trkpt lon="-122.476665" lat="37.805778"><ele>62.9</ele><time>2023-11-17T14:26:15-07:00</time></trkpt><trkpt lon="-122.476908" lat="37.805849"><ele>61.5</ele><time>2023-11-17T14:27:15-07:00</time></trkpt><trkpt lon="-122.477186" lat="37.805807"><ele>59.75</ele><time>2023-11-17T14:28:15-07:00</time></trkpt><trkpt lon="-122.47706" lat="37.805991"><ele>57.79</ele><time>2023-11-17T14:29:15-07:00</time></trkpt><trkpt lon="-122.47724" lat="37.806999"><ele>56.17</ele><time>2023-11-17T14:30:15-07:00</time></trkpt><trkpt lon="-122.477213" lat="37.80734"><ele>55.35</ele><time>2023-11-17T14:31:15-07:00</time></trkpt><trkpt lon="-122.476998" lat="37.807588"><ele>55.2</ele><time>2023-11-17T14:32:15-07:00</time></trkpt><trkpt lon="-122.476935" lat="37.807808"><ele>55.25</ele><time>2023-11-17T14:33:15-07:00</time></trkpt></trkseg></trk></gpx>
