<?xml version="1.0" encoding="UTF-8"?>
<gpx version="1.1" creator="Runcast fixture generator; OSM geometry via routing.openstreetmap.de" xmlns="http://www.topografix.com/GPX/1/1">
  <metadata>
    <name>Paris Seine 10K Loop</name>
    <desc>Approximately 10 km from the Eiffel Tower along the Seine to Pont Neuf, returning on the opposite bank.</desc>
  </metadata>
  <trk>
    <name>Paris Seine 10K Loop</name>
    <trkseg>
      <trkpt lat="48.859507" lon="2.294947"><ele>35.0</ele></trkpt>
      <trkpt lat="48.859537" lon="2.295644"><ele>35.0</ele></trkpt>
      <trkpt lat="48.859527" lon="2.295862"><ele>35.0</ele></trkpt>
      <trkpt lat="48.859490" lon="2.295947"><ele>35.0</ele></trkpt>
      <trkpt lat="48.859858" lon="2.296512"><ele>35.0</ele></trkpt>
      <trkpt lat="48.859942" lon="2.296761"><ele>35.0</ele></trkpt>
      <trkpt lat="48.859970" lon="2.296728"><ele>35.0</ele></trkpt>
      <trkpt lat="48.860096" lon="2.297140"><ele>35.0</ele></trkpt>
      <trkpt lat="48.860134" lon="2.297173"><ele>35.0</ele></trkpt>
      <trkpt lat="48.860338" lon="2.297794"><ele>35.0</ele></trkpt>
      <trkpt lat="48.860554" lon="2.298507"><ele>35.0</ele></trkpt>
      <trkpt lat="48.860911" lon="2.300561"><ele>35.0</ele></trkpt>
      <trkpt lat="48.860954" lon="2.300685"><ele>35.0</ele></trkpt>
      <trkpt lat="48.861004" lon="2.300963"><ele>35.0</ele></trkpt>
      <trkpt lat="48.861034" lon="2.300990"><ele>35.0</ele></trkpt>
      <trkpt lat="48.861048" lon="2.301099"><ele>35.0</ele></trkpt>
      <trkpt lat="48.861071" lon="2.301133"><ele>35.0</ele></trkpt>
      <trkpt lat="48.861120" lon="2.301474"><ele>35.0</ele></trkpt>
      <trkpt lat="48.861812" lon="2.301686"><ele>35.0</ele></trkpt>
      <trkpt lat="48.861815" lon="2.301821"><ele>35.0</ele></trkpt>
      <trkpt lat="48.861780" lon="2.301846"><ele>35.0</ele></trkpt>
      <trkpt lat="48.861777" lon="2.301944"><ele>35.0</ele></trkpt>
      <trkpt lat="48.861825" lon="2.302230"><ele>35.0</ele></trkpt>
      <trkpt lat="48.862183" lon="2.302194"><ele>35.0</ele></trkpt>
      <trkpt lat="48.862254" lon="2.305255"><ele>35.0</ele></trkpt>
      <trkpt lat="48.862233" lon="2.305359"><ele>35.0</ele></trkpt>
      <trkpt lat="48.862240" lon="2.305509"><ele>35.0</ele></trkpt>
      <trkpt lat="48.862260" lon="2.305584"><ele>35.0</ele></trkpt>
      <trkpt lat="48.862274" lon="2.306243"><ele>35.0</ele></trkpt>
      <trkpt lat="48.862259" lon="2.306269"><ele>35.0</ele></trkpt>
      <trkpt lat="48.862284" lon="2.306493"><ele>35.0</ele></trkpt>
      <trkpt lat="48.862299" lon="2.307338"><ele>35.0</ele></trkpt>
      <trkpt lat="48.862289" lon="2.307576"><ele>35.0</ele></trkpt>
      <trkpt lat="48.862307" lon="2.307671"><ele>35.0</ele></trkpt>
      <trkpt lat="48.862315" lon="2.308124"><ele>35.0</ele></trkpt>
      <trkpt lat="48.862298" lon="2.308195"><ele>35.0</ele></trkpt>
      <trkpt lat="48.862302" lon="2.308356"><ele>35.0</ele></trkpt>
      <trkpt lat="48.862322" lon="2.308420"><ele>35.0</ele></trkpt>
      <trkpt lat="48.862335" lon="2.309165"><ele>35.0</ele></trkpt>
      <trkpt lat="48.862322" lon="2.309184"><ele>35.0</ele></trkpt>
      <trkpt lat="48.862328" lon="2.309313"><ele>35.0</ele></trkpt>
      <trkpt lat="48.862341" lon="2.309327"><ele>35.0</ele></trkpt>
      <trkpt lat="48.862346" lon="2.309552"><ele>35.0</ele></trkpt>
      <trkpt lat="48.862324" lon="2.309593"><ele>35.0</ele></trkpt>
      <trkpt lat="48.862329" lon="2.309706"><ele>35.0</ele></trkpt>
      <trkpt lat="48.862348" lon="2.309741"><ele>35.0</ele></trkpt>
      <trkpt lat="48.862366" lon="2.310238"><ele>35.0</ele></trkpt>
      <trkpt lat="48.862359" lon="2.310539"><ele>35.0</ele></trkpt>
      <trkpt lat="48.862367" lon="2.310625"><ele>35.0</ele></trkpt>
      <trkpt lat="48.862449" lon="2.310628"><ele>35.0</ele></trkpt>
      <trkpt lat="48.862694" lon="2.311769"><ele>35.0</ele></trkpt>
      <trkpt lat="48.862725" lon="2.313604"><ele>35.0</ele></trkpt>
      <trkpt lat="48.862739" lon="2.313690"><ele>35.0</ele></trkpt>
      <trkpt lat="48.862745" lon="2.313950"><ele>35.0</ele></trkpt>
      <trkpt lat="48.862508" lon="2.313975"><ele>35.0</ele></trkpt>
      <trkpt lat="48.862475" lon="2.314002"><ele>35.0</ele></trkpt>
      <trkpt lat="48.862476" lon="2.313982"><ele>35.0</ele></trkpt>
      <trkpt lat="48.862343" lon="2.313967"><ele>35.0</ele></trkpt>
      <trkpt lat="48.862341" lon="2.314003"><ele>35.0</ele></trkpt>
      <trkpt lat="48.862278" lon="2.313995"><ele>35.0</ele></trkpt>
      <trkpt lat="48.862300" lon="2.313590"><ele>35.0</ele></trkpt>
      <trkpt lat="48.861212" lon="2.313465"><ele>35.0</ele></trkpt>
      <trkpt lat="48.861140" lon="2.313556"><ele>35.0</ele></trkpt>
      <trkpt lat="48.861117" lon="2.314103"><ele>35.0</ele></trkpt>
      <trkpt lat="48.861096" lon="2.314100"><ele>35.0</ele></trkpt>
      <trkpt lat="48.861066" lon="2.314800"><ele>35.0</ele></trkpt>
      <trkpt lat="48.861099" lon="2.314806"><ele>35.0</ele></trkpt>
      <trkpt lat="48.861086" lon="2.315080"><ele>35.0</ele></trkpt>
      <trkpt lat="48.861046" lon="2.315096"><ele>35.0</ele></trkpt>
      <trkpt lat="48.860799" lon="2.318724"><ele>35.0</ele></trkpt>
      <trkpt lat="48.860819" lon="2.318737"><ele>35.0</ele></trkpt>
      <trkpt lat="48.860803" lon="2.318902"><ele>35.0</ele></trkpt>
      <trkpt lat="48.860775" lon="2.318915"><ele>35.0</ele></trkpt>
      <trkpt lat="48.860694" lon="2.318864"><ele>35.0</ele></trkpt>
      <trkpt lat="48.860622" lon="2.319883"><ele>35.0</ele></trkpt>
      <trkpt lat="48.860660" lon="2.319893"><ele>35.0</ele></trkpt>
      <trkpt lat="48.860650" lon="2.319992"><ele>35.0</ele></trkpt>
      <trkpt lat="48.860697" lon="2.320026"><ele>35.0</ele></trkpt>
      <trkpt lat="48.860669" lon="2.320095"><ele>35.0</ele></trkpt>
      <trkpt lat="48.861125" lon="2.320397"><ele>35.0</ele></trkpt>
      <trkpt lat="48.861154" lon="2.320452"><ele>35.0</ele></trkpt>
      <trkpt lat="48.860957" lon="2.320633"><ele>35.0</ele></trkpt>
      <trkpt lat="48.861051" lon="2.320860"><ele>35.0</ele></trkpt>
      <trkpt lat="48.861082" lon="2.320894"><ele>35.0</ele></trkpt>
      <trkpt lat="48.860333" lon="2.323458"><ele>35.0</ele></trkpt>
      <trkpt lat="48.860311" lon="2.323469"><ele>35.0</ele></trkpt>
      <trkpt lat="48.860251" lon="2.323666"><ele>35.0</ele></trkpt>
      <trkpt lat="48.860261" lon="2.323710"><ele>35.0</ele></trkpt>
      <trkpt lat="48.860033" lon="2.324472"><ele>35.0</ele></trkpt>
      <trkpt lat="48.860093" lon="2.324524"><ele>35.0</ele></trkpt>
      <trkpt lat="48.860070" lon="2.324607"><ele>35.0</ele></trkpt>
      <trkpt lat="48.860441" lon="2.324976"><ele>35.0</ele></trkpt>
      <trkpt lat="48.860473" lon="2.325463"><ele>35.0</ele></trkpt>
      <trkpt lat="48.860577" lon="2.325626"><ele>35.0</ele></trkpt>
      <trkpt lat="48.860617" lon="2.325653"><ele>35.0</ele></trkpt>
      <trkpt lat="48.859936" lon="2.327868"><ele>35.0</ele></trkpt>
      <trkpt lat="48.859892" lon="2.328005"><ele>35.0</ele></trkpt>
      <trkpt lat="48.859877" lon="2.327996"><ele>35.0</ele></trkpt>
      <trkpt lat="48.859896" lon="2.327927"><ele>35.0</ele></trkpt>
      <trkpt lat="48.859921" lon="2.327944"><ele>35.0</ele></trkpt>
      <trkpt lat="48.860679" lon="2.325509"><ele>35.0</ele></trkpt>
      <trkpt lat="48.860617" lon="2.325467"><ele>35.0</ele></trkpt>
      <trkpt lat="48.859868" lon="2.327908"><ele>35.0</ele></trkpt>
      <trkpt lat="48.859896" lon="2.327927"><ele>35.0</ele></trkpt>
      <trkpt lat="48.859550" lon="2.329086"><ele>35.0</ele></trkpt>
      <trkpt lat="48.859507" lon="2.329173"><ele>35.0</ele></trkpt>
      <trkpt lat="48.859154" lon="2.330246"><ele>35.0</ele></trkpt>
      <trkpt lat="48.859307" lon="2.330359"><ele>35.0</ele></trkpt>
      <trkpt lat="48.858758" lon="2.332342"><ele>35.0</ele></trkpt>
      <trkpt lat="48.858669" lon="2.332497"><ele>35.0</ele></trkpt>
      <trkpt lat="48.858619" lon="2.332948"><ele>35.0</ele></trkpt>
      <trkpt lat="48.858085" lon="2.334964"><ele>35.0</ele></trkpt>
      <trkpt lat="48.857994" lon="2.335386"><ele>35.0</ele></trkpt>
      <trkpt lat="48.857983" lon="2.336193"><ele>35.0</ele></trkpt>
      <trkpt lat="48.857963" lon="2.336362"><ele>35.0</ele></trkpt>
      <trkpt lat="48.857761" lon="2.337222"><ele>35.0</ele></trkpt>
      <trkpt lat="48.857610" lon="2.337143"><ele>35.0</ele></trkpt>
      <trkpt lat="48.857526" lon="2.337523"><ele>35.0</ele></trkpt>
      <trkpt lat="48.857542" lon="2.337572"><ele>35.0</ele></trkpt>
      <trkpt lat="48.857507" lon="2.337729"><ele>35.0</ele></trkpt>
      <trkpt lat="48.857490" lon="2.337721"><ele>35.0</ele></trkpt>
      <trkpt lat="48.857436" lon="2.337969"><ele>35.0</ele></trkpt>
      <trkpt lat="48.857108" lon="2.338605"><ele>35.0</ele></trkpt>
      <trkpt lat="48.856499" lon="2.339658"><ele>35.0</ele></trkpt>
      <trkpt lat="48.856253" lon="2.340020"><ele>35.0</ele></trkpt>
      <trkpt lat="48.856079" lon="2.340138"><ele>35.0</ele></trkpt>
      <trkpt lat="48.855975" lon="2.340281"><ele>35.0</ele></trkpt>
      <trkpt lat="48.855936" lon="2.340404"><ele>35.0</ele></trkpt>
      <trkpt lat="48.855937" lon="2.340475"><ele>35.0</ele></trkpt>
      <trkpt lat="48.855233" lon="2.341458"><ele>35.0</ele></trkpt>
      <trkpt lat="48.855169" lon="2.341576"><ele>35.0</ele></trkpt>
      <trkpt lat="48.854730" lon="2.342171"><ele>35.0</ele></trkpt>
      <trkpt lat="48.854558" lon="2.342483"><ele>35.0</ele></trkpt>
      <trkpt lat="48.854621" lon="2.342539"><ele>35.0</ele></trkpt>
      <trkpt lat="48.855220" lon="2.341654"><ele>35.0</ele></trkpt>
      <trkpt lat="48.855273" lon="2.341734"><ele>35.0</ele></trkpt>
      <trkpt lat="48.855330" lon="2.341657"><ele>35.0</ele></trkpt>
      <trkpt lat="48.855349" lon="2.341690"><ele>35.0</ele></trkpt>
      <trkpt lat="48.855371" lon="2.341690"><ele>35.0</ele></trkpt>
      <trkpt lat="48.855733" lon="2.341209"><ele>35.0</ele></trkpt>
      <trkpt lat="48.855767" lon="2.341174"><ele>35.0</ele></trkpt>
      <trkpt lat="48.855795" lon="2.341221"><ele>35.0</ele></trkpt>
      <trkpt lat="48.855988" lon="2.340985"><ele>35.0</ele></trkpt>
      <trkpt lat="48.856175" lon="2.340720"><ele>35.0</ele></trkpt>
      <trkpt lat="48.856238" lon="2.340764"><ele>35.0</ele></trkpt>
      <trkpt lat="48.856250" lon="2.340814"><ele>35.0</ele></trkpt>
      <trkpt lat="48.856293" lon="2.340810"><ele>35.0</ele></trkpt>
      <trkpt lat="48.856380" lon="2.340884"><ele>35.0</ele></trkpt>
      <trkpt lat="48.856392" lon="2.340935"><ele>35.0</ele></trkpt>
      <trkpt lat="48.856434" lon="2.340930"><ele>35.0</ele></trkpt>
      <trkpt lat="48.856529" lon="2.341013"><ele>35.0</ele></trkpt>
      <trkpt lat="48.856550" lon="2.341065"><ele>35.0</ele></trkpt>
      <trkpt lat="48.856579" lon="2.341052"><ele>35.0</ele></trkpt>
      <trkpt lat="48.856668" lon="2.341127"><ele>35.0</ele></trkpt>
      <trkpt lat="48.856671" lon="2.341164"><ele>35.0</ele></trkpt>
      <trkpt lat="48.856710" lon="2.341179"><ele>35.0</ele></trkpt>
      <trkpt lat="48.856720" lon="2.341206"><ele>35.0</ele></trkpt>
      <trkpt lat="48.856289" lon="2.341698"><ele>35.0</ele></trkpt>
      <trkpt lat="48.856321" lon="2.341758"><ele>35.0</ele></trkpt>
      <trkpt lat="48.856381" lon="2.341691"><ele>35.0</ele></trkpt>
      <trkpt lat="48.856398" lon="2.341725"><ele>35.0</ele></trkpt>
      <trkpt lat="48.856728" lon="2.341348"><ele>35.0</ele></trkpt>
      <trkpt lat="48.856751" lon="2.341288"><ele>35.0</ele></trkpt>
      <trkpt lat="48.856847" lon="2.341411"><ele>35.0</ele></trkpt>
      <trkpt lat="48.857088" lon="2.341624"><ele>35.0</ele></trkpt>
      <trkpt lat="48.857175" lon="2.341675"><ele>35.0</ele></trkpt>
      <trkpt lat="48.857259" lon="2.341615"><ele>35.0</ele></trkpt>
      <trkpt lat="48.857284" lon="2.341619"><ele>35.0</ele></trkpt>
      <trkpt lat="48.858299" lon="2.342438"><ele>35.0</ele></trkpt>
      <trkpt lat="48.858374" lon="2.342235"><ele>35.0</ele></trkpt>
      <trkpt lat="48.858410" lon="2.342249"><ele>35.0</ele></trkpt>
      <trkpt lat="48.858447" lon="2.342135"><ele>35.0</ele></trkpt>
      <trkpt lat="48.858548" lon="2.341587"><ele>35.0</ele></trkpt>
      <trkpt lat="48.858539" lon="2.341583"><ele>35.0</ele></trkpt>
      <trkpt lat="48.858577" lon="2.341346"><ele>35.0</ele></trkpt>
      <trkpt lat="48.858512" lon="2.341305"><ele>35.0</ele></trkpt>
      <trkpt lat="48.858631" lon="2.340648"><ele>35.0</ele></trkpt>
      <trkpt lat="48.858729" lon="2.340290"><ele>35.0</ele></trkpt>
      <trkpt lat="48.858937" lon="2.338564"><ele>35.0</ele></trkpt>
      <trkpt lat="48.859100" lon="2.337817"><ele>35.0</ele></trkpt>
      <trkpt lat="48.859180" lon="2.336843"><ele>35.0</ele></trkpt>
      <trkpt lat="48.859286" lon="2.336115"><ele>35.0</ele></trkpt>
      <trkpt lat="48.859329" lon="2.335902"><ele>35.0</ele></trkpt>
      <trkpt lat="48.859373" lon="2.335821"><ele>35.0</ele></trkpt>
      <trkpt lat="48.859483" lon="2.335377"><ele>35.0</ele></trkpt>
      <trkpt lat="48.859473" lon="2.335320"><ele>35.0</ele></trkpt>
      <trkpt lat="48.859905" lon="2.333456"><ele>35.0</ele></trkpt>
      <trkpt lat="48.859916" lon="2.333415"><ele>35.0</ele></trkpt>
      <trkpt lat="48.859931" lon="2.333439"><ele>35.0</ele></trkpt>
      <trkpt lat="48.860033" lon="2.332994"><ele>35.0</ele></trkpt>
      <trkpt lat="48.860076" lon="2.332980"><ele>35.0</ele></trkpt>
      <trkpt lat="48.860520" lon="2.330955"><ele>35.0</ele></trkpt>
      <trkpt lat="48.860598" lon="2.330542"><ele>35.0</ele></trkpt>
      <trkpt lat="48.860614" lon="2.330529"><ele>35.0</ele></trkpt>
      <trkpt lat="48.860694" lon="2.330289"><ele>35.0</ele></trkpt>
      <trkpt lat="48.860728" lon="2.330122"><ele>35.0</ele></trkpt>
      <trkpt lat="48.860773" lon="2.330064"><ele>35.0</ele></trkpt>
      <trkpt lat="48.860824" lon="2.329913"><ele>35.0</ele></trkpt>
      <trkpt lat="48.861032" lon="2.329956"><ele>35.0</ele></trkpt>
      <trkpt lat="48.861157" lon="2.330052"><ele>35.0</ele></trkpt>
      <trkpt lat="48.861166" lon="2.330028"><ele>35.0</ele></trkpt>
      <trkpt lat="48.861266" lon="2.330102"><ele>35.0</ele></trkpt>
      <trkpt lat="48.861301" lon="2.329992"><ele>35.0</ele></trkpt>
      <trkpt lat="48.861329" lon="2.330006"><ele>35.0</ele></trkpt>
      <trkpt lat="48.861710" lon="2.328828"><ele>35.0</ele></trkpt>
      <trkpt lat="48.861815" lon="2.328643"><ele>35.0</ele></trkpt>
      <trkpt lat="48.862185" lon="2.327476"><ele>35.0</ele></trkpt>
      <trkpt lat="48.862699" lon="2.327820"><ele>35.0</ele></trkpt>
      <trkpt lat="48.862720" lon="2.327807"><ele>35.0</ele></trkpt>
      <trkpt lat="48.862772" lon="2.327849"><ele>35.0</ele></trkpt>
      <trkpt lat="48.862764" lon="2.327888"><ele>35.0</ele></trkpt>
      <trkpt lat="48.863216" lon="2.328209"><ele>35.0</ele></trkpt>
      <trkpt lat="48.864351" lon="2.324649"><ele>35.0</ele></trkpt>
      <trkpt lat="48.864223" lon="2.324555"><ele>35.0</ele></trkpt>
      <trkpt lat="48.864118" lon="2.324098"><ele>35.0</ele></trkpt>
      <trkpt lat="48.864243" lon="2.323694"><ele>35.0</ele></trkpt>
      <trkpt lat="48.864553" lon="2.323525"><ele>35.0</ele></trkpt>
      <trkpt lat="48.864680" lon="2.323620"><ele>35.0</ele></trkpt>
      <trkpt lat="48.865352" lon="2.321551"><ele>35.0</ele></trkpt>
      <trkpt lat="48.865085" lon="2.321362"><ele>35.0</ele></trkpt>
      <trkpt lat="48.865469" lon="2.320169"><ele>35.0</ele></trkpt>
      <trkpt lat="48.865069" lon="2.319915"><ele>35.0</ele></trkpt>
      <trkpt lat="48.865063" lon="2.319516"><ele>35.0</ele></trkpt>
      <trkpt lat="48.865116" lon="2.319493"><ele>35.0</ele></trkpt>
      <trkpt lat="48.865249" lon="2.319190"><ele>35.0</ele></trkpt>
      <trkpt lat="48.865160" lon="2.319127"><ele>35.0</ele></trkpt>
      <trkpt lat="48.865011" lon="2.318874"><ele>35.0</ele></trkpt>
      <trkpt lat="48.864990" lon="2.318777"><ele>35.0</ele></trkpt>
      <trkpt lat="48.864999" lon="2.318603"><ele>35.0</ele></trkpt>
      <trkpt lat="48.865158" lon="2.317986"><ele>35.0</ele></trkpt>
      <trkpt lat="48.865164" lon="2.317845"><ele>35.0</ele></trkpt>
      <trkpt lat="48.865117" lon="2.315422"><ele>35.0</ele></trkpt>
      <trkpt lat="48.865100" lon="2.315383"><ele>35.0</ele></trkpt>
      <trkpt lat="48.865070" lon="2.313986"><ele>35.0</ele></trkpt>
      <trkpt lat="48.865086" lon="2.313942"><ele>35.0</ele></trkpt>
      <trkpt lat="48.865095" lon="2.313518"><ele>35.0</ele></trkpt>
      <trkpt lat="48.865064" lon="2.313446"><ele>35.0</ele></trkpt>
      <trkpt lat="48.865052" lon="2.313298"><ele>35.0</ele></trkpt>
      <trkpt lat="48.865006" lon="2.310987"><ele>35.0</ele></trkpt>
      <trkpt lat="48.864992" lon="2.310895"><ele>35.0</ele></trkpt>
      <trkpt lat="48.864983" lon="2.310511"><ele>35.0</ele></trkpt>
      <trkpt lat="48.865110" lon="2.310478"><ele>35.0</ele></trkpt>
      <trkpt lat="48.865106" lon="2.310091"><ele>35.0</ele></trkpt>
      <trkpt lat="48.865007" lon="2.309796"><ele>35.0</ele></trkpt>
      <trkpt lat="48.864968" lon="2.309756"><ele>35.0</ele></trkpt>
      <trkpt lat="48.864964" lon="2.309708"><ele>35.0</ele></trkpt>
      <trkpt lat="48.864827" lon="2.303546"><ele>35.0</ele></trkpt>
      <trkpt lat="48.864825" lon="2.303354"><ele>35.0</ele></trkpt>
      <trkpt lat="48.864845" lon="2.303070"><ele>35.0</ele></trkpt>
      <trkpt lat="48.864832" lon="2.302598"><ele>35.0</ele></trkpt>
      <trkpt lat="48.864860" lon="2.302548"><ele>35.0</ele></trkpt>
      <trkpt lat="48.864824" lon="2.302394"><ele>35.0</ele></trkpt>
      <trkpt lat="48.864699" lon="2.302360"><ele>35.0</ele></trkpt>
      <trkpt lat="48.864679" lon="2.302256"><ele>35.0</ele></trkpt>
      <trkpt lat="48.864679" lon="2.302062"><ele>35.0</ele></trkpt>
      <trkpt lat="48.864628" lon="2.301984"><ele>35.0</ele></trkpt>
      <trkpt lat="48.864165" lon="2.301965"><ele>35.0</ele></trkpt>
      <trkpt lat="48.864089" lon="2.301931"><ele>35.0</ele></trkpt>
      <trkpt lat="48.864071" lon="2.301444"><ele>35.0</ele></trkpt>
      <trkpt lat="48.864093" lon="2.301296"><ele>35.0</ele></trkpt>
      <trkpt lat="48.864107" lon="2.301285"><ele>35.0</ele></trkpt>
      <trkpt lat="48.864060" lon="2.300927"><ele>35.0</ele></trkpt>
      <trkpt lat="48.864031" lon="2.300905"><ele>35.0</ele></trkpt>
      <trkpt lat="48.863753" lon="2.298788"><ele>35.0</ele></trkpt>
      <trkpt lat="48.863296" lon="2.296687"><ele>35.0</ele></trkpt>
      <trkpt lat="48.863215" lon="2.296414"><ele>35.0</ele></trkpt>
      <trkpt lat="48.861541" lon="2.297755"><ele>35.0</ele></trkpt>
      <trkpt lat="48.861228" lon="2.296960"><ele>35.0</ele></trkpt>
      <trkpt lat="48.860850" lon="2.296233"><ele>35.0</ele></trkpt>
      <trkpt lat="48.860578" lon="2.295825"><ele>35.0</ele></trkpt>
      <trkpt lat="48.860540" lon="2.295833"><ele>35.0</ele></trkpt>
      <trkpt lat="48.860411" lon="2.295648"><ele>35.0</ele></trkpt>
      <trkpt lat="48.860410" lon="2.295599"><ele>35.0</ele></trkpt>
      <trkpt lat="48.860126" lon="2.295180"><ele>35.0</ele></trkpt>
      <trkpt lat="48.859994" lon="2.295068"><ele>35.0</ele></trkpt>
      <trkpt lat="48.859698" lon="2.294681"><ele>35.0</ele></trkpt>
      <trkpt lat="48.859578" lon="2.294828"><ele>35.0</ele></trkpt>
      <trkpt lat="48.859507" lon="2.294947"><ele>35.0</ele></trkpt>
    </trkseg>
  </trk>
</gpx>
